{"type": "FeatureCollection", "features": [ {"type": "Feature", "properties": {"norad_id": 66878, "name": "STARLINK-35866", "group": "last-30-days", "lat": 48.213529356008245, "lon": 118.68556957627827, "alt_km": 299.455315213213, "timestamp": "2025-12-15T04:01:19.181886+00:00", "meta": {"OBJECT_NAME": "STARLINK-35866", "OBJECT_ID": "2025-283A", "EPOCH": "2025-12-14T06:00:02.999808", "MEAN_MOTION": 15.9067315, "ECCENTRICITY": 8.761e-05, "INCLINATION": 53.1558, "RA_OF_ASC_NODE": 66.3035, "ARG_OF_PERICENTER": 89.0404, "MEAN_ANOMALY": 126.0221, "EPHEMERIS_TYPE": 0, "CLASSIFICATION_TYPE": "U", "NORAD_CAT_ID": 66878, "ELEMENT_SET_NO": 999, "REV_AT_EPOCH": 267, "BSTAR": -0.0039239528, "MEAN_MOTION_DOT": -0.01103372, "MEAN_MOTION_DDOT": 0}, "tle": {"line1": "1 66878U 25283A   25348.25003472 -.01103372  00000+0 -39240-2 0  9998", "line2": "2 66878  53.1558  66.3035 0000876  89.0404 126.0221 15.90673150  2679"}}, "geometry": {"type": "Point", "coordinates": [118.68556957627827, 48.213529356008245]}}, {"type": "Feature", "properties": {"norad_id": 66879, "name": "STARLINK-35749", "group": "last-30-days", "lat": 50.22048096728113, "lon": 125.87908050158923, "alt_km": 298.7187464465824, "timestamp": "2025-12-15T04:01:19.181896+00:00", "meta": {"OBJECT_NAME": "STARLINK-35749", "OBJECT_ID": "2025-283B", "EPOCH": "2025-12-14T06:00:02.999808", "MEAN_MOTION": 15.90758303, "ECCENTRICITY": 0.00011244, "INCLINATION": 53.1555, "RA_OF_ASC_NODE": 66.2932, "ARG_OF_PERICENTER": 82.5207, "MEAN_ANOMALY": 137.3847, "EPHEMERIS_TYPE": 0, "CLASSIFICATION_TYPE": "U", "NORAD_CAT_ID": 66879, "ELEMENT_SET_NO": 999, "REV_AT_EPOCH": 267, "BSTAR": -0.0039313849, "MEAN_MOTION_DOT": -0.01251246, "MEAN_MOTION_DDOT": 0.00045423161}, "tle": {"line1": "1 66879U 25283B   25348.25003472 -.01251246  45423-3 -39314-2 0  9997", "line2": "2 66879  53.1555  66.2932 0001124  82.5207 137.3847 15.90758303  2671"}}, "geometry": {"type": "Point", "coordinates": [125.87908050158923, 50.22048096728113]}}, {"type": "Feature", "properties": {"norad_id": 66880, "name": "STARLINK-35844", "group": "last-30-days", "lat": 49.220391859349945, "lon": 122.02109274909496, "alt_km": 299.21256699938294, "timestamp": "2025-12-15T04:01:19.181907+00:00", "meta": {"OBJECT_NAME": "STARLINK-35844", "OBJECT_ID": "2025-283C", "EPOCH": "2025-12-14T06:00:02.999808", "MEAN_MOTION": 15.90716225, "ECCENTRICITY": 8.699e-05, "INCLINATION": 53.1558, "RA_OF_ASC_NODE": 66.2988, "ARG_OF_PERICENTER": 90.445, "MEAN_ANOMALY": 126.9081, "EPHEMERIS_TYPE": 0, "CLASSIFICATION_TYPE": "U", "NORAD_CAT_ID": 66880, "ELEMENT_SET_NO": 999, "REV_AT_EPOCH": 267, "BSTAR": -0.0039312812, "MEAN_MOTION_DOT": -0.01248523, "MEAN_MOTION_DDOT": 0.0004522525}, "tle": {"line1": "1 66880U 25283C   25348.25003472 -.01248523  45225-3 -39313-2 0  9992", "line2": "2 66880  53.1558  66.2988 0000869  90.4450 126.9081 15.90716225  2671"}}, "geometry": {"type": "Point", "coordinates": [122.02109274909496, 49.220391859349945]}}, {"type": "Feature", "properties": {"norad_id": 66881, "name": "STARLINK-35860", "group": "last-30-days", "lat": 50.900961811325715, "lon": 128.95817785430248, "alt_km": 298.56349088928437, "timestamp": "2025-12-15T04:01:19.181919+00:00", "meta": {"OBJECT_NAME": "STARLINK-35860", "OBJECT_ID": "2025-283D", "EPOCH": "2025-12-14T06:00:02.999808", "MEAN_MOTION": 15.90805222, "ECCENTRICITY": 0.00011097, "INCLINATION": 53.1555, "RA_OF_ASC_NODE": 66.2889, "ARG_OF_PERICENTER": 86.2389, "MEAN_ANOMALY": 135.6179, "EPHEMERIS_TYPE": 0, "CLASSIFICATION_TYPE": "U", "NORAD_CAT_ID": 66881, "ELEMENT_SET_NO": 999, "REV_AT_EPOCH": 267, "BSTAR": -0.0039623873, "MEAN_MOTION_DOT": -0.01263999, "MEAN_MOTION_DDOT": 0.0004629006}, "tle": {"line1": "1 66881U 25283D   25348.25003472 -.01263999  46290-3 -39624-2 0  9995", "line2": "2 66881  53.1555  66.2889 0001109  86.2389 135.6179 15.90805222  2672"}}, "geometry": {"type": "Point", "coordinates": [128.95817785430248, 50.900961811325715]}}, {"type": "Feature", "properties": {"norad_id": 66882, "name": "STARLINK-35912", "group": "last-30-days", "lat": 51.5827968278917, "lon": 132.62205073801107, "alt_km": 298.4447509357924, "timestamp": "2025-12-15T04:01:19.181929+00:00", "meta": {"OBJECT_NAME": "STARLINK-35912", "OBJECT_ID": "2025-283E", "EPOCH": "2025-12-14T06:00:02.999808", "MEAN_MOTION": 15.90845291, "ECCENTRICITY": 9.352e-05, "INCLINATION": 53.1555, "RA_OF_ASC_NODE": 66.2846, "ARG_OF_PERICENTER": 77.5914, "MEAN_ANOMALY": 146.5134, "EPHEMERIS_TYPE": 0, "CLASSIFICATION_TYPE": "U", "NORAD_CAT_ID": 66882, "ELEMENT_SET_NO": 999, "REV_AT_EPOCH": 267, "BSTAR": -0.0039432928, "MEAN_MOTION_DOT": -0.0126051, "MEAN_MOTION_DDOT": 0.00046075321}, "tle": {"line1": "1 66882U 25283E   25348.25003472 -.01260510  46075-3 -39433-2 0  9991", "line2": "2 66882  53.1555  66.2846 0000935  77.5914 146.5134 15.90845291  2671"}}, "geometry": {"type": "Point", "coordinates": [132.62205073801107, 51.5827968278917]}}, {"type": "Feature", "properties": {"norad_id": 66883, "name": "STARLINK-35947", "group": "last-30-days", "lat": 52.17824945008921, "lon": 136.6256538850216, "alt_km": 298.36772095177275, "timestamp": "2025-12-15T04:01:19.181939+00:00", "meta": {"OBJECT_NAME": "STARLINK-35947", "OBJECT_ID": "2025-283F", "EPOCH": "2025-12-14T06:00:02.999808", "MEAN_MOTION": 15.90892797, "ECCENTRICITY": 8.482e-05, "INCLINATION": 53.1556, "RA_OF_ASC_NODE": 66.2799, "ARG_OF_PERICENTER": 87.8565, "MEAN_ANOMALY": 138.664, "EPHEMERIS_TYPE": 0, "CLASSIFICATION_TYPE": "U", "NORAD_CAT_ID": 66883, "ELEMENT_SET_NO": 999, "REV_AT_EPOCH": 272, "BSTAR": -0.0039678788, "MEAN_MOTION_DOT": -0.01271328, "MEAN_MOTION_DDOT": 0.00046818956}, "tle": {"line1": "1 66883U 25283F   25348.25003472 -.01271328  46819-3 -39679-2 0  9999", "line2": "2 66883  53.1556  66.2799 0000848  87.8565 138.6640 15.90892797  2722"}}, "geometry": {"type": "Point", "coordinates": [136.6256538850216, 52.17824945008921]}}, {"type": "Feature", "properties": {"norad_id": 66884, "name": "STARLINK-36057", "group": "last-30-days", "lat": 52.93969400646012, "lon": 144.78806789246204, "alt_km": 298.02872374446633, "timestamp": "2025-12-15T04:01:19.181949+00:00", "meta": {"OBJECT_NAME": "STARLINK-36057", "OBJECT_ID": "2025-283G", "EPOCH": "2025-12-14T06:00:02.999808", "MEAN_MOTION": 15.90983966, "ECCENTRICITY": 8.55e-05, "INCLINATION": 53.1555, "RA_OF_ASC_NODE": 66.2694, "ARG_OF_PERICENTER": 87.7176, "MEAN_ANOMALY": 143.5426, "EPHEMERIS_TYPE": 0, "CLASSIFICATION_TYPE": "U", "NORAD_CAT_ID": 66884, "ELEMENT_SET_NO": 999, "REV_AT_EPOCH": 267, "BSTAR": -0.0039782839, "MEAN_MOTION_DOT": -0.01280529, "MEAN_MOTION_DDOT": 0.00047479151}, "tle": {"line1": "1 66884U 25283G   25348.25003472 -.01280529  47479-3 -39783-2 0  9992", "line2": "2 66884  53.1555  66.2694 0000855  87.7176 143.5426 15.90983966  2671"}}, "geometry": {"type": "Point", "coordinates": [144.78806789246204, 52.93969400646012]}}, {"type": "Feature", "properties": {"norad_id": 66885, "name": "STARLINK-35954", "group": "last-30-days", "lat": 52.63052124238102, "lon": 140.68626257715772, "alt_km": 298.1658589255103, "timestamp": "2025-12-15T04:01:19.181960+00:00", "meta": {"OBJECT_NAME": "STARLINK-35954", "OBJECT_ID": "2025-283H", "EPOCH": "2025-12-14T06:00:02.999808", "MEAN_MOTION": 15.9093727, "ECCENTRICITY": 8.738e-05, "INCLINATION": 53.1553, "RA_OF_ASC_NODE": 66.2744, "ARG_OF_PERICENTER": 88.0898, "MEAN_ANOMALY": 140.8067, "EPHEMERIS_TYPE": 0, "CLASSIFICATION_TYPE": "U", "NORAD_CAT_ID": 66885, "ELEMENT_SET_NO": 999, "REV_AT_EPOCH": 267, "BSTAR": -0.003965798, "MEAN_MOTION_DOT": -0.01273539, "MEAN_MOTION_DDOT": 0.00046987291}, "tle": {"line1": "1 66885U 25283H   25348.25003472 -.01273539  46987-3 -39658-2 0  9990", "line2": "2 66885  53.1553  66.2744 0000873  88.0898 140.8067 15.90937270  2679"}}, "geometry": {"type": "Point", "coordinates": [140.68626257715772, 52.63052124238102]}}, {"type": "Feature", "properties": {"norad_id": 66886, "name": "STARLINK-35900", "group": "last-30-days", "lat": 53.12328011063685, "lon": 149.9240312313098, "alt_km": 297.8874708384574, "timestamp": "2025-12-15T04:01:19.181971+00:00", "meta": {"OBJECT_NAME": "STARLINK-35900", "OBJECT_ID": "2025-283J", "EPOCH": "2025-12-14T06:00:02.999808", "MEAN_MOTION": 15.91035966, "ECCENTRICITY": 8.679e-05, "INCLINATION": 53.1554, "RA_OF_ASC_NODE": 66.2633, "ARG_OF_PERICENTER": 82.3352, "MEAN_ANOMALY": 151.8795, "EPHEMERIS_TYPE": 0, "CLASSIFICATION_TYPE": "U", "NORAD_CAT_ID": 66886, "ELEMENT_SET_NO": 999, "REV_AT_EPOCH": 267, "BSTAR": -0.0040072298, "MEAN_MOTION_DOT": -0.01293149, "MEAN_MOTION_DDOT": 0.00048358718}, "tle": {"line1": "1 66886U 25283J   25348.25003472 -.01293149  48359-3 -40072-2 0  9997", "line2": "2 66886  53.1554  66.2633 0000867  82.3352 151.8795 15.91035966  2675"}}, "geometry": {"type": "Point", "coordinates": [149.9240312313098, 53.12328011063685]}}, {"type": "Feature", "properties": {"norad_id": 66887, "name": "STARLINK-35925", "group": "last-30-days", "lat": 53.11161501835996, "lon": 153.96302109599213, "alt_km": 297.7580156332788, "timestamp": "2025-12-15T04:01:19.181980+00:00", "meta": {"OBJECT_NAME": "STARLINK-35925", "OBJECT_ID": "2025-283K", "EPOCH": "2025-12-14T06:00:02.999808", "MEAN_MOTION": 15.91081698, "ECCENTRICITY": 8.912e-05, "INCLINATION": 53.1554, "RA_OF_ASC_NODE": 66.2589, "ARG_OF_PERICENTER": 85.1587, "MEAN_ANOMALY": 151.3358, "EPHEMERIS_TYPE": 0, "CLASSIFICATION_TYPE": "U", "NORAD_CAT_ID": 66887, "ELEMENT_SET_NO": 999, "REV_AT_EPOCH": 267, "BSTAR": -0.0040069515, "MEAN_MOTION_DOT": -0.01296067, "MEAN_MOTION_DDOT": 0.00048578959}, "tle": {"line1": "1 66887U 25283K   25348.25003472 -.01296067  48579-3 -40070-2 0  9992", "line2": "2 66887  53.1554  66.2589 0000891  85.1587 151.3358 15.91081698  2677"}}, "geometry": {"type": "Point", "coordinates": [153.96302109599213, 53.11161501835996]}}]}